{"type": "FeatureCollection", "features": [ {"type": "Feature", "properties": {"norad_id": 67060, "name": "HULIANWANG DIGUI-120", "group": "last-30-days", "lat": 24.832670998290887, "lon": -1.4714049658655024, "alt_km": 807.0127882067873, "timestamp": "2025-12-21T09:37:21.375476+00:00", "meta": {"OBJECT_NAME": "HULIANWANG DIGUI-120", "OBJECT_ID": "2025-295B", "EPOCH": "2025-12-21T04:25:14.028096", "MEAN_MOTION": 14.25709706, "ECCENTRICITY": 0.0013183, "INCLINATION": 50.0059, "RA_OF_ASC_NODE": 336.585, "ARG_OF_PERICENTER": 277.1486, "MEAN_ANOMALY": 82.7929, "EPHEMERIS_TYPE": 0, "CLASSIFICATION_TYPE": "U", "NORAD_CAT_ID": 67060, "ELEMENT_SET_NO": 999, "REV_AT_EPOCH": 132, "BSTAR": -6.7642e-06, "MEAN_MOTION_DOT": -1.76e-06, "MEAN_MOTION_DDOT": 0}, "tle": {"line1": "1 67060U 25295B   25355.18419014 -.00000176  00000+0 -67642-5 0  9995", "line2": "2 67060  50.0059 336.5850 0013183 277.1486  82.7929 14.25709706  1325"}}, "geometry": {"type": "Point", "coordinates": [-1.4714049658655024, 24.832670998290887]}}, {"type": "Feature", "properties": {"norad_id": 67061, "name": "HULIANWANG DIGUI-121", "group": "last-30-days", "lat": 25.23332326425546, "lon": -1.0422669410765841, "alt_km": 807.241462428472, "timestamp": "2025-12-21T09:37:21.375489+00:00", "meta": {"OBJECT_NAME": "HULIANWANG DIGUI-121", "OBJECT_ID": "2025-295C", "EPOCH": "2025-12-15T17:12:22.292352", "MEAN_MOTION": 14.25729079, "ECCENTRICITY": 0.00132682, "INCLINATION": 50.0012, "RA_OF_ASC_NODE": 359.6606, "ARG_OF_PERICENTER": 256.3366, "MEAN_ANOMALY": 103.6071, "EPHEMERIS_TYPE": 0, "CLASSIFICATION_TYPE": "U", "NORAD_CAT_ID": 67061, "ELEMENT_SET_NO": 999, "REV_AT_EPOCH": 54, "BSTAR": 6.6638352e-05, "MEAN_MOTION_DOT": -1e-08, "MEAN_MOTION_DDOT": 0}, "tle": {"line1": "1 67061U 25295C   25349.71692468 -.00000001  00000+0  66638-4 0  9993", "line2": "2 67061  50.0012 359.6606 0013268 256.3366 103.6071 14.25729079   549"}}, "geometry": {"type": "Point", "coordinates": [-1.0422669410765841, 25.23332326425546]}}, {"type": "Feature", "properties": {"norad_id": 67062, "name": "HULIANWANG DIGUI-122", "group": "last-30-days", "lat": 25.967299278663326, "lon": -0.20237301793258433, "alt_km": 806.0291750330962, "timestamp": "2025-12-21T09:37:21.375499+00:00", "meta": {"OBJECT_NAME": "HULIANWANG DIGUI-122", "OBJECT_ID": "2025-295D", "EPOCH": "2025-12-21T04:24:47.604384", "MEAN_MOTION": 14.25756063, "ECCENTRICITY": 0.0013166, "INCLINATION": 50.0054, "RA_OF_ASC_NODE": 336.5821, "ARG_OF_PERICENTER": 282.9895, "MEAN_ANOMALY": 76.9548, "EPHEMERIS_TYPE": 0, "CLASSIFICATION_TYPE": "U", "NORAD_CAT_ID": 67062, "ELEMENT_SET_NO": 999, "REV_AT_EPOCH": 132, "BSTAR": 8.1355e-05, "MEAN_MOTION_DOT": 3.4e-07, "MEAN_MOTION_DDOT": 0}, "tle": {"line1": "1 67062U 25295D   25355.18388431  .00000034  00000+0  81355-4 0  9992", "line2": "2 67062  50.0054 336.5821 0013166 282.9895  76.9548 14.25756063  1329"}}, "geometry": {"type": "Point", "coordinates": [-0.20237301793258433, 25.967299278663326]}}, {"type": "Feature", "properties": {"norad_id": 67063, "name": "HULIANWANG DIGUI-123", "group": "last-30-days", "lat": 29.05924773728121, "lon": 3.463821847180801, "alt_km": 805.674177299753, "timestamp": "2025-12-21T09:37:21.375509+00:00", "meta": {"OBJECT_NAME": "HULIANWANG DIGUI-123", "OBJECT_ID": "2025-295E", "EPOCH": "2025-12-21T04:23:33.812736", "MEAN_MOTION": 14.25888884, "ECCENTRICITY": 0.0012479, "INCLINATION": 50.006, "RA_OF_ASC_NODE": 336.5801, "ARG_OF_PERICENTER": 282.1522, "MEAN_ANOMALY": 77.7994, "EPHEMERIS_TYPE": 0, "CLASSIFICATION_TYPE": "U", "NORAD_CAT_ID": 67063, "ELEMENT_SET_NO": 999, "REV_AT_EPOCH": 132, "BSTAR": 7.9277e-05, "MEAN_MOTION_DOT": 3e-07, "MEAN_MOTION_DDOT": 0}, "tle": {"line1": "1 67063U 25295E   25355.18303024  .00000030  00000+0  79277-4 0  9994", "line2": "2 67063  50.0060 336.5801 0012479 282.1522  77.7994 14.25888884  1321"}}, "geometry": {"type": "Point", "coordinates": [3.463821847180801, 29.05924773728121]}}, {"type": "Feature", "properties": {"norad_id": 67064, "name": "HULIANWANG DIGUI-124", "group": "last-30-days", "lat": 30.42975279867016, "lon": 5.1883953761958805, "alt_km": 806.0799587136707, "timestamp": "2025-12-21T09:37:21.375523+00:00", "meta": {"OBJECT_NAME": "HULIANWANG DIGUI-124", "OBJECT_ID": "2025-295F", "EPOCH": "2025-12-21T04:23:00.128832", "MEAN_MOTION": 14.25948642, "ECCENTRICITY": 0.0012091, "INCLINATION": 50.0036, "RA_OF_ASC_NODE": 336.564, "ARG_OF_PERICENTER": 276.9618, "MEAN_ANOMALY": 82.992, "EPHEMERIS_TYPE": 0, "CLASSIFICATION_TYPE": "U", "NORAD_CAT_ID": 67064, "ELEMENT_SET_NO": 999, "REV_AT_EPOCH": 132, "BSTAR": -0.00018353, "MEAN_MOTION_DOT": -6.01e-06, "MEAN_MOTION_DDOT": 0}, "tle": {"line1": "1 67064U 25295F   25355.18264038 -.00000601  00000+0 -18353-3 0  9999", "line2": "2 67064  50.0036 336.5640 0012091 276.9618  82.9920 14.25948642  1329"}}, "geometry": {"type": "Point", "coordinates": [5.1883953761958805, 30.42975279867016]}}, {"type": "Feature", "properties": {"norad_id": 67065, "name": "HULIANWANG DIGUI-125", "group": "last-30-days", "lat": 30.542493014598893, "lon": 5.336017046568847, "alt_km": 805.349142126317, "timestamp": "2025-12-21T09:37:21.375544+00:00", "meta": {"OBJECT_NAME": "HULIANWANG DIGUI-125", "OBJECT_ID": "2025-295G", "EPOCH": "2025-12-21T04:22:57.493632", "MEAN_MOTION": 14.25954475, "ECCENTRICITY": 0.0012271, "INCLINATION": 50.0011, "RA_OF_ASC_NODE": 336.5623, "ARG_OF_PERICENTER": 282.9102, "MEAN_ANOMALY": 77.0441, "EPHEMERIS_TYPE": 0, "CLASSIFICATION_TYPE": "U", "NORAD_CAT_ID": 67065, "ELEMENT_SET_NO": 999, "REV_AT_EPOCH": 132, "BSTAR": 7.4207e-05, "MEAN_MOTION_DOT": 1.8e-07, "MEAN_MOTION_DDOT": 0}, "tle": {"line1": "1 67065U 25295G   25355.18260988  .00000018  00000+0  74207-4 0  9991", "line2": "2 67065  50.0011 336.5623 0012271 282.9102  77.0441 14.25954475  1323"}}, "geometry": {"type": "Point", "coordinates": [5.336017046568847, 30.542493014598893]}}, {"type": "Feature", "properties": {"norad_id": 67066, "name": "HULIANWANG DIGUI-126", "group": "last-30-days", "lat": 33.746215079228655, "lon": 9.749204477284906, "alt_km": 805.0351067404818, "timestamp": "2025-12-21T09:37:21.375558+00:00", "meta": {"OBJECT_NAME": "HULIANWANG DIGUI-126", "OBJECT_ID": "2025-295H", "EPOCH": "2025-12-21T04:21:36.444384", "MEAN_MOTION": 14.2609745, "ECCENTRICITY": 0.0011434, "INCLINATION": 50.0013, "RA_OF_ASC_NODE": 336.5565, "ARG_OF_PERICENTER": 279.9834, "MEAN_ANOMALY": 79.979, "EPHEMERIS_TYPE": 0, "CLASSIFICATION_TYPE": "U", "NORAD_CAT_ID": 67066, "ELEMENT_SET_NO": 999, "REV_AT_EPOCH": 132, "BSTAR": 7.2228e-05, "MEAN_MOTION_DOT": 1.4e-07, "MEAN_MOTION_DDOT": 0}, "tle": {"line1": "1 67066U 25295H   25355.18167181  .00000014  00000+0  72228-4 0  9990", "line2": "2 67066  50.0013 336.5565 0011434 279.9834  79.9790 14.26097450  1329"}}, "geometry": {"type": "Point", "coordinates": [9.749204477284906, 33.746215079228655]}}, {"type": "Feature", "properties": {"norad_id": 67067, "name": "HULIANWANG DIGUI-127", "group": "last-30-days", "lat": 36.654763829673996, "lon": 14.288033550519959, "alt_km": 803.9527981869978, "timestamp": "2025-12-21T09:37:21.375569+00:00", "meta": {"OBJECT_NAME": "HULIANWANG DIGUI-127", "OBJECT_ID": "2025-295J", "EPOCH": "2025-12-20T23:17:38.160384", "MEAN_MOTION": 14.26250284, "ECCENTRICITY": 0.0010881, "INCLINATION": 50.0053, "RA_OF_ASC_NODE": 337.4474, "ARG_OF_PERICENTER": 282.889, "MEAN_ANOMALY": 77.0809, "EPHEMERIS_TYPE": 0, "CLASSIFICATION_TYPE": "U", "NORAD_CAT_ID": 67067, "ELEMENT_SET_NO": 999, "REV_AT_EPOCH": 129, "BSTAR": -0.00025532, "MEAN_MOTION_DOT": -7.77e-06, "MEAN_MOTION_DDOT": 0}, "tle": {"line1": "1 67067U 25295J   25354.97058056 -.00000777  00000+0 -25532-3 0  9990", "line2": "2 67067  50.0053 337.4474 0010881 282.8890  77.0809 14.26250284  1295"}}, "geometry": {"type": "Point", "coordinates": [14.288033550519959, 36.654763829673996]}}, {"type": "Feature", "properties": {"norad_id": 67068, "name": "CZ-12 R/B", "group": "last-30-days", "lat": -10.700634080045416, "lon": 163.83503904187646, "alt_km": 720.3889473955242, "timestamp": "2025-12-21T09:37:21.375579+00:00", "meta": {"OBJECT_NAME": "CZ-12 R/B", "OBJECT_ID": "2025-295K", "EPOCH": "2025-12-21T03:44:09.385152", "MEAN_MOTION": 14.41128989, "ECCENTRICITY": 0.0056878, "INCLINATION": 49.9943, "RA_OF_ASC_NODE": 335.7666, "ARG_OF_PERICENTER": 166.0712, "MEAN_ANOMALY": 194.1792, "EPHEMERIS_TYPE": 0, "CLASSIFICATION_TYPE": "U", "NORAD_CAT_ID": 67068, "ELEMENT_SET_NO": 999, "REV_AT_EPOCH": 132, "BSTAR": 6.2973e-06, "MEAN_MOTION_DOT": -1.48e-06, "MEAN_MOTION_DDOT": 0}, "tle": {"line1": "1 67068U 25295K   25355.15566418 -.00000148  00000+0  62973-5 0  9991", "line2": "2 67068  49.9943 335.7666 0056878 166.0712 194.1792 14.41128989  1326"}}, "geometry": {"type": "Point", "coordinates": [163.83503904187646, -10.700634080045416]}}, {"type": "Feature", "properties": {"norad_id": 67069, "name": "XIWANG-5 02", "group": "last-30-days", "lat": 25.36120235563561, "lon": 84.77957947231774, "alt_km": 504.3675135201074, "timestamp": "2025-12-21T09:37:21.375591+00:00", "meta": {"OBJECT_NAME": "XIWANG-5 02", "OBJECT_ID": "2025-296A", "EPOCH": "2025-12-21T03:07:27.966720", "MEAN_MOTION": 15.16832103, "ECCENTRICITY": 0.0014471, "INCLINATION": 41.3526, "RA_OF_ASC_NODE": 53.7138, "ARG_OF_PERICENTER": 85.3212, "MEAN_ANOMALY": 274.9261, "EPHEMERIS_TYPE": 0, "CLASSIFICATION_TYPE": "U", "NORAD_CAT_ID": 67069, "ELEMENT_SET_NO": 999, "REV_AT_EPOCH": 123, "BSTAR": 0.00042001, "MEAN_MOTION_DOT": 8.246e-05, "MEAN_MOTION_DDOT": 0}, "tle": {"line1": "1 67069U 25296A   25355.13018480  .00008246  00000+0  42001-3 0  9996", "line2": "2 67069  41.3526  53.7138 0014471  85.3212 274.9261 15.16832103  1233"}}, "geometry": {"type": "Point", "coordinates": [84.77957947231774, 25.36120235563561]}}]}